CZ-2C R/B,1 54039U 22132E   26029.95132299  .00051445  00000+0  66795-3 0  9994,2 54039  97.2950  32.2000 0016914 228.8824 131.0973 15.58499375184336,0.020272850997609854,95.63037001299874,402811.3744887813
GSLV R/B,1 54149U 22138AN  26029.94061131  .00005054  00000+0  44144-3 0  9996,2 54149  87.3842 179.3295 0019585 295.4110  64.5093 14.96467685178136,-57.200161959026985,-121.98278537105443,586642.6732447944
XRISM,1 57800U 23137A   26030.06857993  .00008162  00000+0  47085-3 0  9997,2 57800  31.0005 173.3673 0007978  11.9080 348.1746 15.10995588131943,0.10722880604592855,-126.1103229703026,526330.6248429379
ACS3,1 59588U 24077B   26029.88035588  .00022248  00000+0  18508-1 0  9999,2 59588  97.2280 339.7143 0046875 203.3583 156.5451 13.87964269 88816,38.956915740339156,37.21896376204991,973820.393342219
SZ-21 MODULE,1 66515U 25246C   26030.13432971  .00039582  00000+0  38274-3 0  9996,2 66515  41.4760  80.1708 0003469 256.2180 103.8275 15.65656752 12026,37.42599510003433,-159.53593791344102,375296.57140131935
