CCSDS_OMM_VERS = 2.0
CREATION_DATE  = 
ORIGINATOR     = 

OBJECT_NAME    = CZ-2C R/B
OBJECT_ID      = 2022-132E
CENTER_NAME    = EARTH
REF_FRAME      = TEME
TIME_SYSTEM    = UTC
MEAN_ELEMENT_THEORY = SGP/SGP4

EPOCH          = 2026-01-29T22:49:54.306336
MEAN_MOTION    = 15.58499375
ECCENTRICITY   = .0016914
INCLINATION    = 97.2950
RA_OF_ASC_NODE = 32.2000
ARG_OF_PERICENTER = 228.8824
MEAN_ANOMALY   = 131.0973

EPHEMERIS_TYPE = 0
CLASSIFICATION_TYPE = U
NORAD_CAT_ID   = 54039
ELEMENT_SET_NO = 999
REV_AT_EPOCH   = 18433
BSTAR          = .66795E-3
MEAN_MOTION_DOT = .51445E-3
MEAN_MOTION_DDOT = 0

CCSDS_OMM_VERS = 2.0
CREATION_DATE  = 
ORIGINATOR     = 

OBJECT_NAME    = GSLV R/B
OBJECT_ID      = 2022-138AN
CENTER_NAME    = EARTH
REF_FRAME      = TEME
TIME_SYSTEM    = UTC
MEAN_ELEMENT_THEORY = SGP/SGP4

EPOCH          = 2026-01-29T22:34:28.817184
MEAN_MOTION    = 14.96467685
ECCENTRICITY   = .0019585
INCLINATION    = 87.3842
RA_OF_ASC_NODE = 179.3295
ARG_OF_PERICENTER = 295.4110
MEAN_ANOMALY   = 64.5093

EPHEMERIS_TYPE = 0
CLASSIFICATION_TYPE = U
NORAD_CAT_ID   = 54149
ELEMENT_SET_NO = 999
REV_AT_EPOCH   = 17813
BSTAR          = .44144E-3
MEAN_MOTION_DOT = .5054E-4
MEAN_MOTION_DDOT = 0

CCSDS_OMM_VERS = 2.0
CREATION_DATE  = 
ORIGINATOR     = 

OBJECT_NAME    = XRISM
OBJECT_ID      = 2023-137A
CENTER_NAME    = EARTH
REF_FRAME      = TEME
TIME_SYSTEM    = UTC
MEAN_ELEMENT_THEORY = SGP/SGP4

EPOCH          = 2026-01-30T01:38:45.305952
MEAN_MOTION    = 15.10995588
ECCENTRICITY   = .0007978
INCLINATION    = 31.0005
RA_OF_ASC_NODE = 173.3673
ARG_OF_PERICENTER = 11.9080
MEAN_ANOMALY   = 348.1746

EPHEMERIS_TYPE = 0
CLASSIFICATION_TYPE = U
NORAD_CAT_ID   = 57800
ELEMENT_SET_NO = 999
REV_AT_EPOCH   = 13194
BSTAR          = .47085E-3
MEAN_MOTION_DOT = .8162E-4
MEAN_MOTION_DDOT = 0

CCSDS_OMM_VERS = 2.0
CREATION_DATE  = 
ORIGINATOR     = 

OBJECT_NAME    = ACS3
OBJECT_ID      = 2024-077B
CENTER_NAME    = EARTH
REF_FRAME      = TEME
TIME_SYSTEM    = UTC
MEAN_ELEMENT_THEORY = SGP/SGP4

EPOCH          = 2026-01-29T21:07:42.748032
MEAN_MOTION    = 13.87964269
ECCENTRICITY   = .0046875
INCLINATION    = 97.2280
RA_OF_ASC_NODE = 339.7143
ARG_OF_PERICENTER = 203.3583
MEAN_ANOMALY   = 156.5451

EPHEMERIS_TYPE = 0
CLASSIFICATION_TYPE = U
NORAD_CAT_ID   = 59588
ELEMENT_SET_NO = 999
REV_AT_EPOCH   = 8881
BSTAR          = .18508E-1
MEAN_MOTION_DOT = .22248E-3
MEAN_MOTION_DDOT = 0

CCSDS_OMM_VERS = 2.0
CREATION_DATE  = 
ORIGINATOR     = 

OBJECT_NAME    = SZ-21 MODULE
OBJECT_ID      = 2025-246C
CENTER_NAME    = EARTH
REF_FRAME      = TEME
TIME_SYSTEM    = UTC
MEAN_ELEMENT_THEORY = SGP/SGP4

EPOCH          = 2026-01-30T03:13:26.086944
MEAN_MOTION    = 15.65656752
ECCENTRICITY   = .0003469
INCLINATION    = 41.4760
RA_OF_ASC_NODE = 80.1708
ARG_OF_PERICENTER = 256.2180
MEAN_ANOMALY   = 103.8275

EPHEMERIS_TYPE = 0
CLASSIFICATION_TYPE = U
NORAD_CAT_ID   = 66515
ELEMENT_SET_NO = 999
REV_AT_EPOCH   = 1202
BSTAR          = .38274E-3
MEAN_MOTION_DOT = .39582E-3
MEAN_MOTION_DDOT = 0

